CCSDS_OMM_VERS = 2.0
CREATION_DATE  = 
ORIGINATOR     = 

OBJECT_NAME    = CYGNUS NG-23
OBJECT_ID      = 2025-208A
CENTER_NAME    = EARTH
REF_FRAME      = TEME
TIME_SYSTEM    = UTC
MEAN_ELEMENT_THEORY = SGP/SGP4

EPOCH          = 2025-12-14T20:42:23.988960
MEAN_MOTION    = 15.49595360
ECCENTRICITY   = .00032074
INCLINATION    = 51.6306
RA_OF_ASC_NODE = 131.9662
ARG_OF_PERICENTER = 249.8734
MEAN_ANOMALY   = 110.1909

EPHEMERIS_TYPE = 0
CLASSIFICATION_TYPE = U
NORAD_CAT_ID   = 65616
ELEMENT_SET_NO = 999
REV_AT_EPOCH   = 22
BSTAR          = .13765617E-3
MEAN_MOTION_DOT = .7299E-4
MEAN_MOTION_DDOT = 0

CCSDS_OMM_VERS = 2.0
CREATION_DATE  = 
ORIGINATOR     = 

OBJECT_NAME    = DRAGONFLY
OBJECT_ID      = 1998-067XH
CENTER_NAME    = EARTH
REF_FRAME      = TEME
TIME_SYSTEM    = UTC
MEAN_ELEMENT_THEORY = SGP/SGP4

EPOCH          = 2025-12-14T18:32:10.159584
MEAN_MOTION    = 15.72674024
ECCENTRICITY   = .00069619
INCLINATION    = 51.6244
RA_OF_ASC_NODE = 125.3489
ARG_OF_PERICENTER = 292.1448
MEAN_ANOMALY   = 67.8811

EPHEMERIS_TYPE = 0
CLASSIFICATION_TYPE = U
NORAD_CAT_ID   = 65729
ELEMENT_SET_NO = 999
REV_AT_EPOCH   = 1348
BSTAR          = .10954429E-2
MEAN_MOTION_DOT = .152909E-2
MEAN_MOTION_DDOT = 0

CCSDS_OMM_VERS = 2.0
CREATION_DATE  = 
ORIGINATOR     = 

OBJECT_NAME    = 1998-067XK
OBJECT_ID      = 1998-067XK
CENTER_NAME    = EARTH
REF_FRAME      = TEME
TIME_SYSTEM    = UTC
MEAN_ELEMENT_THEORY = SGP/SGP4

EPOCH          = 2025-12-14T09:26:35.318976
MEAN_MOTION    = 15.66124170
ECCENTRICITY   = .00048995
INCLINATION    = 51.6278
RA_OF_ASC_NODE = 128.8403
ARG_OF_PERICENTER = 257.8165
MEAN_ANOMALY   = 102.2282

EPHEMERIS_TYPE = 0
CLASSIFICATION_TYPE = U
NORAD_CAT_ID   = 65731
ELEMENT_SET_NO = 999
REV_AT_EPOCH   = 1340
BSTAR          = .10467097E-2
MEAN_MOTION_DOT = .110677E-2
MEAN_MOTION_DDOT = 0

CCSDS_OMM_VERS = 2.0
CREATION_DATE  = 
ORIGINATOR     = 

OBJECT_NAME    = RSP-03
OBJECT_ID      = 1998-067XL
CENTER_NAME    = EARTH
REF_FRAME      = TEME
TIME_SYSTEM    = UTC
MEAN_ELEMENT_THEORY = SGP/SGP4

EPOCH          = 2025-12-14T18:39:23.399424
MEAN_MOTION    = 15.69202876
ECCENTRICITY   = .00056754
INCLINATION    = 51.6257
RA_OF_ASC_NODE = 126.1422
ARG_OF_PERICENTER = 265.6852
MEAN_ANOMALY   = 94.3496

EPHEMERIS_TYPE = 0
CLASSIFICATION_TYPE = U
NORAD_CAT_ID   = 65732
ELEMENT_SET_NO = 999
REV_AT_EPOCH   = 1348
BSTAR          = .9740183E-3
MEAN_MOTION_DOT = .116871E-2
MEAN_MOTION_DDOT = 0

CCSDS_OMM_VERS = 2.0
CREATION_DATE  = 
ORIGINATOR     = 

OBJECT_NAME    = GHS-01
OBJECT_ID      = 1998-067XM
CENTER_NAME    = EARTH
REF_FRAME      = TEME
TIME_SYSTEM    = UTC
MEAN_ELEMENT_THEORY = SGP/SGP4

EPOCH          = 2025-12-13T15:24:20.714688
MEAN_MOTION    = 15.75321114
ECCENTRICITY   = .00073966
INCLINATION    = 51.6271
RA_OF_ASC_NODE = 130.5592
ARG_OF_PERICENTER = 286.1274
MEAN_ANOMALY   = 73.8911

EPHEMERIS_TYPE = 0
CLASSIFICATION_TYPE = U
NORAD_CAT_ID   = 65733
ELEMENT_SET_NO = 999
REV_AT_EPOCH   = 1332
BSTAR          = .14639187E-2
MEAN_MOTION_DOT = .23151E-2
MEAN_MOTION_DDOT = 0

CCSDS_OMM_VERS = 2.0
CREATION_DATE  = 
ORIGINATOR     = 

OBJECT_NAME    = YOTSUBA-KULOVER
OBJECT_ID      = 1998-067XN
CENTER_NAME    = EARTH
REF_FRAME      = TEME
TIME_SYSTEM    = UTC
MEAN_ELEMENT_THEORY = SGP/SGP4

EPOCH          = 2025-12-14T10:37:31.352736
MEAN_MOTION    = 15.59735422
ECCENTRICITY   = .00013863
INCLINATION    = 51.6284
RA_OF_ASC_NODE = 131.4172
ARG_OF_PERICENTER = 271.9783
MEAN_ANOMALY   = 88.1051

EPHEMERIS_TYPE = 0
CLASSIFICATION_TYPE = U
NORAD_CAT_ID   = 65941
ELEMENT_SET_NO = 999
REV_AT_EPOCH   = 1012
BSTAR          = .91507112E-3
MEAN_MOTION_DOT = .74853E-3
MEAN_MOTION_DDOT = 0

CCSDS_OMM_VERS = 2.0
CREATION_DATE  = 
ORIGINATOR     = 

OBJECT_NAME    = BOTAN
OBJECT_ID      = 1998-067XP
CENTER_NAME    = EARTH
REF_FRAME      = TEME
TIME_SYSTEM    = UTC
MEAN_ELEMENT_THEORY = SGP/SGP4

EPOCH          = 2025-12-13T19:19:30.936288
MEAN_MOTION    = 15.63168137
ECCENTRICITY   = .00029855
INCLINATION    = 51.6273
RA_OF_ASC_NODE = 133.9097
ARG_OF_PERICENTER = 245.5023
MEAN_ANOMALY   = 114.5660

EPHEMERIS_TYPE = 0
CLASSIFICATION_TYPE = U
NORAD_CAT_ID   = 65942
ELEMENT_SET_NO = 999
REV_AT_EPOCH   = 1003
BSTAR          = .12359991E-2
MEAN_MOTION_DOT = .116317E-2
MEAN_MOTION_DDOT = 0

CCSDS_OMM_VERS = 2.0
CREATION_DATE  = 
ORIGINATOR     = 

OBJECT_NAME    = E-KAGAKU-1
OBJECT_ID      = 1998-067XQ
CENTER_NAME    = EARTH
REF_FRAME      = TEME
TIME_SYSTEM    = UTC
MEAN_ELEMENT_THEORY = SGP/SGP4

EPOCH          = 2025-12-14T15:14:24.603072
MEAN_MOTION    = 15.59736251
ECCENTRICITY   = .00018352
INCLINATION    = 51.6284
RA_OF_ASC_NODE = 130.4549
ARG_OF_PERICENTER = 215.0597
MEAN_ANOMALY   = 145.0275

EPHEMERIS_TYPE = 0
CLASSIFICATION_TYPE = U
NORAD_CAT_ID   = 65943
ELEMENT_SET_NO = 999
REV_AT_EPOCH   = 1015
BSTAR          = .73893681E-3
MEAN_MOTION_DOT = .60238E-3
MEAN_MOTION_DDOT = 0

CCSDS_OMM_VERS = 2.0
CREATION_DATE  = 
ORIGINATOR     = 

OBJECT_NAME    = HRC MONOBLOCK CAMERA
OBJECT_ID      = 1998-067XR
CENTER_NAME    = EARTH
REF_FRAME      = TEME
TIME_SYSTEM    = UTC
MEAN_ELEMENT_THEORY = SGP/SGP4

EPOCH          = 2025-12-14T23:10:53.339232
MEAN_MOTION    = 15.54310569
ECCENTRICITY   = .00030025
INCLINATION    = 51.6288
RA_OF_ASC_NODE = 130.4053
ARG_OF_PERICENTER = 194.2306
MEAN_ANOMALY   = 165.8601

EPHEMERIS_TYPE = 0
CLASSIFICATION_TYPE = U
NORAD_CAT_ID   = 66052
ELEMENT_SET_NO = 999
REV_AT_EPOCH   = 918
BSTAR          = .41495523E-3
MEAN_MOTION_DOT = .27269E-3
MEAN_MOTION_DDOT = 0

CCSDS_OMM_VERS = 2.0
CREATION_DATE  = 
ORIGINATOR     = 

OBJECT_NAME    = HTV-X1
OBJECT_ID      = 2025-241A
CENTER_NAME    = EARTH
REF_FRAME      = TEME
TIME_SYSTEM    = UTC
MEAN_ELEMENT_THEORY = SGP/SGP4

EPOCH          = 2025-12-14T20:42:23.988960
MEAN_MOTION    = 15.49595360
ECCENTRICITY   = .00032074
INCLINATION    = 51.6306
RA_OF_ASC_NODE = 131.9662
ARG_OF_PERICENTER = 249.8734
MEAN_ANOMALY   = 110.1909

EPHEMERIS_TYPE = 0
CLASSIFICATION_TYPE = U
NORAD_CAT_ID   = 66174
ELEMENT_SET_NO = 999
REV_AT_EPOCH   = 51
BSTAR          = .13765617E-3
MEAN_MOTION_DOT = .7299E-4
MEAN_MOTION_DDOT = 0

CCSDS_OMM_VERS = 2.0
CREATION_DATE  = 
ORIGINATOR     = 

OBJECT_NAME    = SZ-21 MODULE
OBJECT_ID      = 2025-246C
CENTER_NAME    = EARTH
REF_FRAME      = TEME
TIME_SYSTEM    = UTC
MEAN_ELEMENT_THEORY = SGP/SGP4

EPOCH          = 2025-12-14T06:21:31.494240
MEAN_MOTION    = 15.62581213
ECCENTRICITY   = .00062526
INCLINATION    = 41.4775
RA_OF_ASC_NODE = 6.7415
ARG_OF_PERICENTER = 268.4580
MEAN_ANOMALY   = 91.5544

EPHEMERIS_TYPE = 0
CLASSIFICATION_TYPE = U
NORAD_CAT_ID   = 66515
ELEMENT_SET_NO = 999
REV_AT_EPOCH   = 468
BSTAR          = .32565972E-3
MEAN_MOTION_DOT = .2972E-3
MEAN_MOTION_DDOT = 0

CCSDS_OMM_VERS = 2.0
CREATION_DATE  = 
ORIGINATOR     = 

OBJECT_NAME    = SHENZHOU-22
OBJECT_ID      = 2025-272A
CENTER_NAME    = EARTH
REF_FRAME      = TEME
TIME_SYSTEM    = UTC
MEAN_ELEMENT_THEORY = SGP/SGP4

EPOCH          = 2025-12-14T18:20:35.966688
MEAN_MOTION    = 15.59276671
ECCENTRICITY   = .00079692
INCLINATION    = 41.4686
RA_OF_ASC_NODE = 4.4163
ARG_OF_PERICENTER = 47.9044
MEAN_ANOMALY   = 312.2471

EPHEMERIS_TYPE = 0
CLASSIFICATION_TYPE = U
NORAD_CAT_ID   = 66645
ELEMENT_SET_NO = 999
REV_AT_EPOCH   = 26357
BSTAR          = .2758625E-3
MEAN_MOTION_DOT = .22075E-3
MEAN_MOTION_DDOT = 0

