CYGNUS NG-23            
1 65616U 25208A   25348.86277765  .00007299  00000+0  13766-3 0  9993
2 65616  51.6306 131.9662 0003207 249.8734 110.1909 15.49595360   226
DRAGONFLY               
1 65729U 98067XH  25348.77233981  .00152909  00000+0  10954-2 0  9997
2 65729  51.6244 125.3489 0006961 292.1448  67.8811 15.72674024 13482
1998-067XK              
1 65731U 98067XK  25348.39346434  .00110677  00000+0  10467-2 0  9991
2 65731  51.6278 128.8403 0004899 257.8165 102.2282 15.66124170 13401
RSP-03                  
1 65732U 98067XL  25348.77735416  .00116871  00000+0  97402-3 0  9993
2 65732  51.6257 126.1422 0005675 265.6852  94.3496 15.69202876 13483
GHS-01                  
1 65733U 98067XM  25347.64190642  .00231510  00000+0  14639-2 0  9993
2 65733  51.6271 130.5592 0007396 286.1274  73.8911 15.75321114 13326
YOTSUBA-KULOVER         
1 65941U 98067XN  25348.44272399  .00074853  00000+0  91507-3 0  9998
2 65941  51.6284 131.4172 0001386 271.9783  88.1051 15.59735422 10127
BOTAN                   
1 65942U 98067XP  25347.80521917  .00116317  00000+0  12360-2 0  9992
2 65942  51.6273 133.9097 0002985 245.5023 114.5660 15.63168137 10037
E-KAGAKU-1              
1 65943U 98067XQ  25348.63500698  .00060238  00000+0  73894-3 0  9998
2 65943  51.6284 130.4549 0001835 215.0597 145.0275 15.59736251 10152
HRC MONOBLOCK CAMERA    
1 66052U 98067XR  25348.96589513  .00027269  00000+0  41496-3 0  9999
2 66052  51.6288 130.4053 0003002 194.2306 165.8601 15.54310569  9181
HTV-X1                  
1 66174U 25241A   25348.86277765  .00007299  00000+0  13766-3 0  9990
2 66174  51.6306 131.9662 0003207 249.8734 110.1909 15.49595360   518
SZ-21 MODULE            
1 66515U 25246C   25348.26494785  .00029720  00000+0  32566-3 0  9993
2 66515  41.4775   6.7415 0006252 268.4580  91.5544 15.62581213  4684
SHENZHOU-22             
1 66645U 25272A   25348.76430517  .00022075  00000+0  27586-3 0  9996
2 66645  41.4686   4.4163 0007969  47.9044 312.2471 15.59276671263577
